EWS-G1 (GOES 13)        
1 29155U 06018A   24138.88180510 -.00000151  00000+0  00000+0 0  9992
2 29155   2.5481  85.6121 0083277 254.5178 214.0676  0.99110881 35737
DMSP 5D-3 F17 (USA 191) 
1 29522U 06050A   24138.91108987  .00000478  00000+0  27159-3 0  9997
2 29522  98.7446 150.1122 0011255  68.8140 291.4235 14.14471180904913
FENGYUN 3A              
1 32958U 08026A   24138.78524151  .00000426  00000+0  22404-3 0  9990
2 32958  98.6024  86.7865 0009098 153.5465 206.6177 14.19085643827538
FENGYUN 2E              
1 33463U 08066A   24138.55970413 -.00000144  00000+0  00000+0 0  9999
2 33463   7.5166  60.8162 0002369  24.1602 172.5769  0.99124361 56467
NOAA 19                 
1 33591U 09005A   24138.92372074  .00000484  00000+0  28394-3 0  9991
2 33591  99.0489 194.4001 0014055  22.2608 337.9171 14.13004092787092
GOES 14                 
1 35491U 09033A   24138.56994144 -.00000057  00000+0  00000+0 0  9998
2 35491   0.2680 107.2417 0003524 329.6776 255.3670  1.00273330 54484
DMSP 5D-3 F18 (USA 210) 
1 35951U 09057A   24138.91015042  .00000710  00000+0  39601-3 0  9993
2 35951  98.8123 114.6707 0009922 251.7498 108.2595 14.14110194752088
EWS-G2 (GOES 15)        
1 36411U 10008A   24138.89397876  .00000043  00000+0  00000+0 0  9994
2 36411   0.2205  90.1601 0001110 169.4449 359.9941  1.00277939 52019
COMS 1                  
1 36744U 10032A   24138.33466630 -.00000336  00000+0  00000+0 0  9990
2 36744   2.8540  84.7935 0000935 336.6024  62.7318  1.00271017 43465
FENGYUN 3B              
1 37214U 10059A   24138.93375270  .00000326  00000+0  19330-3 0  9995
2 37214  99.0569 166.6017 0022311 175.4871 248.7981 14.14491652699938
SUOMI NPP               
1 37849U 11061A   24138.87557300  .00000303  00000+0  16415-3 0  9998
2 37849  98.7210  77.3118 0001352  60.2385 299.8926 14.19569308650576
FENGYUN 2F              
1 38049U 12002A   24138.76090260 -.00000348  00000+0  00000+0 0  9991
2 38049   5.5204  73.4230 0002220  80.7098 108.0262  1.00275041 45254
METEOSAT-10 (MSG-3)     
1 38552U 12035B   24138.88180510  .00000003  00000+0  00000+0 0  9994
2 38552   2.8990  60.7386 0002012 296.9262 195.8644  1.00273450 43235
METOP-B                 
1 38771U 12049A   24138.83683341  .00000428  00000+0  21508-3 0  9998
2 38771  98.6290 196.7372 0001886 104.3649 255.7738 14.21533990605237
INSAT-3D                
1 39216U 13038B   24138.43729976 -.00000149  00000+0  00000+0 0  9994
2 39216   0.0659  93.2066 0000942 210.9069 171.0222  1.00270740 39458
FENGYUN 3C              
1 39260U 13052A   24138.92838836  .00000322  00000+0  18329-3 0  9998
2 39260  98.4286 140.1397 0012146  58.1245 302.1111 14.16201700550981
METEOR-M 2              
1 40069U 14037A   24138.96357960  .00000443  00000+0  22337-3 0  9997
2 40069  98.4361 134.5540 0007022  87.2105 272.9876 14.20960316511334
HIMAWARI-8              
1 40267U 14060A   24138.33710295 -.00000269  00000+0  00000+0 0  9994
2 40267   0.0325 163.6065 0001273 292.3604  41.5423  1.00269759 35238
FENGYUN 2G              
1 40367U 14090A   24138.90143291 -.00000291  00000+0  00000+0 0  9992
2 40367   3.7147  81.8618 0002508 115.7896 102.1114  1.00284002 34372
METEOSAT-11 (MSG-4)     
1 40732U 15034A   24138.88363258  .00000071  00000+0  00000+0 0  9996
2 40732   1.3146  68.3091 0001525 164.8492 330.2507  1.00269533   220
ELEKTRO-L 2             
1 41105U 15074A   24138.73185819 -.00000106  00000+0  00000+0 0  9994
2 41105   4.7658  79.8140 0000702 222.2247 182.8462  1.00273308 30886
INSAT-3DR               
1 41752U 16054A   24137.67966931 -.00000074  00000+0  00000+0 0  9999
2 41752   0.1163  92.1443 0010561 181.7183 279.6950  1.00273046 28187
HIMAWARI-9              
1 41836U 16064A   24138.83820677 -.00000267  00000+0  00000+0 0  9992
2 41836   0.0199 104.0223 0001091 326.5504 247.9473  1.00268926 27583
GOES 16                 
1 41866U 16071A   24137.79315419 -.00000244  00000+0  00000+0 0  9995
2 41866   0.0446 269.1467 0000397 139.1484  37.0291  1.00271694 27466
FENGYUN 4A              
1 41882U 16077A   24138.89899627 -.00000192  00000+0  00000+0 0  9991
2 41882   0.3825  84.6367 0007563 340.5320 221.0849  1.00281991 27304
CYGFM05                 
1 41884U 16078A   24138.34654510  .00014569  00000+0  54655-3 0  9995
2 41884  34.9514 136.2481 0013201 273.6038  86.3167 15.26308370411365
CYGFM04                 
1 41885U 16078B   24138.94129991  .00017277  00000+0  62990-3 0  9992
2 41885  34.9468 116.8457 0010846 299.5376  60.4257 15.27250416411546
CYGFM02                 
1 41886U 16078C   24138.64511985  .00017698  00000+0  63919-3 0  9997
2 41886  34.9515 121.0457 0013600 286.3709  73.5511 15.27523384411582
CYGFM01                 
1 41887U 16078D   24138.38855581  .00015080  00000+0  57051-3 0  9995
2 41887  34.9497 139.7453 0013534 264.0414  95.8758 15.26019594411308
CYGFM08                 
1 41888U 16078E   24138.68797167  .00015869  00000+0  58197-3 0  9991
2 41888  34.9489 126.3272 0014146 288.1432  71.7743 15.27029339411528
CYGFM07                 
1 41890U 16078G   24138.34472061  .00015938  00000+0  57980-3 0  9996
2 41890  34.9507 120.0495 0010696 293.2352  66.7236 15.27336784411463
CYGFM03                 
1 41891U 16078H   24138.63924676  .00015893  00000+0  57945-3 0  9994
2 41891  34.9486 119.3380 0011636 281.3071  78.6336 15.27253234411499
FENGYUN 3D              
1 43010U 17072A   24138.92327748  .00000379  00000+0  20197-3 0  9995
2 43010  98.9089  93.4042 0002601  73.0096 287.1364 14.19341625337122
NOAA 20 (JPSS-1)        
1 43013U 17073A   24138.89354022  .00000278  00000+0  15249-3 0  9990
2 43013  98.7053  77.3236 0000702  28.9930 331.1285 14.19584026336604
GOES 17                 
1 43226U 18022A   24138.56994144 -.00000083  00000+0  00000+0 0  9990
2 43226   0.0093  76.7630 0000593 332.6831 286.7823  1.00271996 22794
FENGYUN 2H              
1 43491U 18050A   24138.89751689 -.00000121  00000+0  00000+0 0  9999
2 43491   1.0655  87.4433 0001320  20.4356 170.6683  1.00272555 21815
METOP-C                 
1 43689U 18087A   24138.87404264  .00000378  00000+0  19275-3 0  9991
2 43689  98.7250 198.5020 0002578 148.1464 211.9870 14.21471191286812
GEO-KOMPSAT-2A          
1 43823U 18100A   24136.00396574 -.00000345  00000+0  00000+0 0  9991
2 43823   0.0583  94.4818 0002060 334.5328 293.8949  1.00271127 19979
METEOR-M2 2             
1 44387U 19038A   24138.93450301  .00000192  00000+0  10335-3 0  9996
2 44387  98.8250 108.0430 0002302  66.9264 293.2157 14.23885060253080
ARKTIKA-M 1             
1 47719U 21016A   24127.38117565  .00000151  00000+0  00000+0 0  9995
2 47719  63.1375 156.5510 6928264 268.7856  18.0119  2.00601690 23309
FENGYUN 3E              
1 49008U 21062A   24138.90252472  .00000130  00000+0  82282-4 0  9990
2 49008  98.7323 140.5889 0002673 106.8356 253.3114 14.19752539148690
GOES 18                 
1 51850U 22021A   24138.75674348  .00000105  00000+0  00000+0 0  9992
2 51850   0.0031  80.6441 0000534 297.7511 352.9662  1.00272785  8140
NOAA 21 (JPSS-2)        
1 54234U 22150A   24138.85693556  .00000349  00000+0  18643-3 0  9993
2 54234  98.7507  77.1085 0000782 106.1712 253.9550 14.19571275 78678
METEOSAT-12 (MTG-I1)    
1 54743U 22170C   24138.18660435 -.00000002  00000+0  00000+0 0  9997
2 54743   0.4659  34.1977 0001697  27.1408 240.8028  1.00268910  5348
TIANMU-1 03             
1 55973U 23039A   24138.39243450  .00014734  00000+0  61409-3 0  9995
2 55973  97.4654 289.1537 0009698 250.3501 109.6690 15.23766669 64168
TIANMU-1 04             
1 55974U 23039B   24138.44175556  .00015417  00000+0  64311-3 0  9997
2 55974  97.4575 288.7949 0009918 251.0955 108.9206 15.23724374 64161
TIANMU-1 05             
1 55975U 23039C   24138.42550224  .00016052  00000+0  66680-3 0  9992
2 55975  97.4624 289.0861 0007966 252.2442 107.7926 15.23873755 64152
TIANMU-1 06             
1 55976U 23039D   24138.95699488 -.00370554  00000+0 -16269-1 0  9995
2 55976  97.4651 289.7259 0008028 261.2072 222.6301 15.23574588 64235
METEOR-M2 3             
1 57166U 23091A   24138.89950306  .00000119  00000+0  70999-4 0  9996
2 57166  98.7146 193.8413 0003472 201.9189 158.1842 14.23892490 46312
TIANMU-1 07             
1 57399U 23101A   24138.88420249  .00010827  00000+0  55530-3 0  9993
2 57399  97.3652 196.8934 0003287 301.2889  58.8022 15.16714214 45835
TIANMU-1 08             
1 57400U 23101B   24138.91982597  .00011446  00000+0  58640-3 0  9992
2 57400  97.3639 196.8047 0005753 304.4326  55.6363 15.16729990 45839
TIANMU-1 09             
1 57401U 23101C   24138.90215998  .00011844  00000+0  60718-3 0  9997
2 57401  97.3596 196.6493 0006055 298.7004  61.3620 15.16695992 45833
TIANMU-1 10             
1 57402U 23101D   24138.86789900  .00010950  00000+0  56181-3 0  9998
2 57402  97.3674 196.8602 0008218 296.2178  63.8210 15.16673715 45823
FENGYUN 3F              
1 57490U 23111A   24138.92874082  .00000295  00000+0  15999-3 0  9992
2 57490  98.7704 208.3370 0001562 128.5821 231.5495 14.19812934 40977
TIANMU-1 11             
1 58645U 23205A   24138.86738067  .00010161  00000+0  55082-3 0  9994
2 58645  97.4057 164.7455 0012944 142.6715 217.5419 15.14702055 21923
TIANMU-1 12             
1 58646U 23205B   24138.94957517  .00011112  00000+0  60189-3 0  9998
2 58646  97.4041 164.7612 0011571 135.3060 224.9107 15.14723761 21922
TIANMU-1 13             
1 58647U 23205C   24138.91611577  .00010218  00000+0  55386-3 0  9998
2 58647  97.4069 164.7112 0011839 122.7666 237.4709 15.14715212 21915
TIANMU-1 14             
1 58648U 23205D   24138.83400535  .00010659  00000+0  57747-3 0  9992
2 58648  97.3993 164.5254 0012181 123.9299 236.3093 15.14717827 21909
